IRIDIUM 144             
1 43249U 18030A   24248.42984278  .00001293  00000+0  45450-3 0  9993
2 43249  86.4011 202.3594 0002083  89.4847 270.6587 14.34226264336867
IRIDIUM 149             
1 43250U 18030B   24248.92457156  .00001167  00000+0  40951-3 0  9991
2 43250  86.4011 202.1272 0002263  92.1390 268.0065 14.34221956336959
IRIDIUM 157             
1 43251U 18030C   24248.94360393  .00001163  00000+0  40832-3 0  9994
2 43251  86.4013 202.1579 0002614  85.3106 274.8388 14.34218859336930
IRIDIUM 140             
1 43252U 18030D   24248.26494061  .00000031  00000+0  41171-5 0  9992
2 43252  86.4017 202.4556 0001893  81.4607 278.6803 14.34217057336892
IRIDIUM 145             
1 43253U 18030E   24248.94994542 -.00000022  00000+0 -14997-4 0  9994
2 43253  86.4017 202.1434 0001853  94.0678 266.0729 14.34216021336921
IRIDIUM 146             
1 43254U 18030F   24248.93090677  .00000982  00000+0  34337-3 0  9992
2 43254  86.4012 202.1656 0002196  87.7939 272.3508 14.34222429336938
IRIDIUM 148             
1 43255U 18030G   24248.96897597 -.00000177  00000+0 -70373-4 0  9991
2 43255  86.4016 202.1831 0002273  90.7076 269.4381 14.34214749336987
IRIDIUM 142             
1 43256U 18030H   24248.37908455  .00000594  00000+0  20509-3 0  9999
2 43256  86.4009 202.3415 0002008  95.2387 264.9038 14.34217298336858
